satname,norad_id,inclination_deg,eccentricity,mean_motion_rev_per_day,perigee_km,apogee_km,l1,l2
STARLINK-1527,46048,53.1611,0.0001044,15.30205604,474.48284872734166,475.9138251456934,1 46048U 20055X   26093.93758442  .00001296  00000+0  55859-4 0  9999,2 46048  53.1611 356.6607 0001044  96.8166 263.2954 15.30205604312912
STARLINK-1540,46051,53.1612,0.0001387,15.30162828,474.3754852313841,476.2766358843828,1 46051U 20055AA  26093.96075308 -.00011808  00000+0 -38763-3 0  9995,2 46051  53.1612 356.4635 0001387  86.0443 274.0716 15.30162828312955
STARLINK-1541,46052,53.1612,0.0001551,15.30204199,474.1395790294573,476.26548495228053,1 46052U 20055AB  26093.95022059  .00002154  00000+0  84829-4 0  9997,2 46052  53.1612 356.5581 0001551 115.1328 244.9833 15.30204199312916
STARLINK-1543,46053,53.1607,0.0001483,15.30200855,474.1961648113247,476.2288682779308,1 46053U 20055AC  26094.02186153  .00002379  00000+0  92428-4 0  9996,2 46053  53.1607 356.2462 0001483 103.7328 256.3838 15.30200855312954
STARLINK-1548,46054,53.1612,0.0001323,15.30198891,474.31168177855943,476.1250796122913,1 46054U 20055AD  26093.96391853  .00001012  00000+0  46280-4 0  9992,2 46054  53.1612 356.5155 0001323 101.1003 259.0146 15.30198891312945
STARLINK-1554,46055,53.1599,0.0001355,15.30201148,474.283012959444,476.1402704413449,1 46055U 20055AE  26093.96183837  .00001421  00000+0  60079-4 0  9990,2 46055  53.1599 356.6503 0001355  91.7022 268.4134 15.30201148312949
STARLINK-1564,46058,53.1602,0.0001375,15.30202347,474.2657267633458,476.1503966553146,1 46058U 20055AH  26093.95978200  .00000997  00000+0  45795-4 0  9993,2 46058  53.1602 356.9949 0001375 101.7596 258.3560 15.30202347312936
STARLINK-1570,46059,53.1615,0.0001516,15.30198005,474.1820570594318,476.2599952129558,1 46059U 20055AJ  26093.98920643  .00003313  00000+0  12395-3 0  9999,2 46059  53.1615 356.3990 0001516  85.6020 274.5154 15.30198005312901
STARLINK-1572,46060,53.1602,0.0001248,15.30204391,474.34666201411164,476.0572554182072,1 46060U 20055AK  26094.13671923  .00004433  00000+0  16169-3 0  9990,2 46060  53.1602 355.9171 0001248  85.8434 274.2710 15.30204391312932
STARLINK-1573,46061,53.1609,0.00017,15.30194745,474.06568742781565,476.39583246619804,1 46061U 20055AL  26094.43060163  .00000573  00000+0  31485-4 0  9992,2 46061  53.1609 354.3006 0001700  76.7699 283.3492 15.30194745313014
STARLINK-1577,46063,53.1616,0.0001283,15.30206405,474.3166626936563,476.07522792742293,1 46063U 20055AN  26094.13035294  .00002526  00000+0  97374-4 0  9997,2 46063  53.1616 355.6646 0001283  98.8372 261.2774 15.30206405312965
STARLINK-1583,46064,53.1608,0.00014,15.30203291,474.24577519010745,476.1647110181766,1 46064U 20055AP  26094.03554742  .00001952  00000+0  77995-4 0  9990,2 46064  53.1608 356.1397 0001400  87.8746 272.2415 15.30203291312942
STARLINK-1525,46066,53.0545,0.0001875,15.31579161,469.81600169878675,472.3844656614174,1 46066U 20055AR  26094.17356087  .00121165  00000+0  38675-2 0  9998,2 46066  53.0545 338.6214 0001875 188.8029 171.2939 15.31579161313198
STARLINK-1536,46070,53.0579,0.0001331,15.10303184,534.3544568299085,536.1948070063254,1 46070U 20055AV  26094.07857528  .00023566  00000+0  14351-2 0  9999,2 46070  53.0579 342.4763 0001331  96.2522 263.8620 15.10303184313146
STARLINK-1542,46073,53.0534,0.0005471,15.06633148,542.7086177391411,550.2855523549997,1 46073U 20055AY  26094.28624259  .00144189  00000+0  94417-2 0  9994,2 46073  53.0534 341.7122 0005471 185.7001 174.3926 15.06633148313164
STARLINK-1549,46074,53.0534,0.0001268,15.14521366,521.5570424243824,523.3070267315525,1 46074U 20055AZ  26094.25002315  .02002880  00000+0  98224-1 0  9997,2 46074  53.0534 341.6814 0001268  92.0359 251.2570 15.14521366  5679
STARLINK-1551,46075,53.0844,0.0001444,15.13592222,524.2589159249583,526.2526157557322,1 46075U 20055BA  26094.25002315  .01858434  00000+0  92761-1 0  9991,2 46075  53.0844 341.7745 0001444  83.2066  75.6169 15.13592222  5783
STARLINK-1552,46076,53.0859,0.0001202,15.13876352,523.562285047381,525.2216530115365,1 46076U 20055BB  26094.25002315  .01819733  00000+0  90298-1 0  9994,2 46076  53.0859 341.7664 0001202  97.9509 284.9331 15.13876352  5770
STARLINK-1559,46077,53.0252,0.0003608,15.32257276,466.6088123314794,471.5497636048767,1 46077U 20055BC  26094.02215630  .00105087  00000+0  32923-2 0  9997,2 46077  53.0252 315.7944 0003608 133.6645 226.4655 15.32257276313468
STARLINK-1566,46079,53.0869,0.0001136,15.14187463,522.6624360000069,524.2304757611828,1 46079U 20055BE  26094.25002315  .01821457  00000+0  89592-1 0  9998,2 46079  53.0869 341.7591 0001136 106.2627 181.4631 15.14187463  5788
STARLINK-1568,46080,53.0604,0.0004692,15.48631214,417.5392941592736,423.91935031606135,1 46080U 20055BF  26094.19752456  .00060923  00000+0  11208-2 0  9993,2 46080  53.0604 271.0612 0004692 208.0298 152.0458 15.48631214314140
STARLINK-1578,46082,53.0542,0.0001751,15.10780435,532.608321184638,535.0288880373728,1 46082U 20055BH  26094.20790359  .00146172  00000+0  85462-2 0  9995,2 46082  53.0542 341.8993 0001751  72.0498 288.0684 15.10780435313155
STARLINK-1579,46083,53.0831,0.0001463,15.13484004,524.574820976336,526.5948499853976,1 46083U 20055BJ  26094.25002315  .00919156  00000+0  46921-1 0  9995,2 46083  53.0831 341.7725 0001463  93.8616 265.6742 15.13484004  5679
STARLINK-1585,46117,53.0292,0.0005343,16.10410517,242.17824917214057,249.25649995680033,1 46117U 20057A   26094.54194787  .01353186  12273-2  13842-2 0  9993,2 46117  53.0292 114.6915 0005343  37.8211 322.3197 16.10410517311161
STARLINK-1593,46119,53.0418,0.0006043,15.85635788,310.4907287672204,318.5794922799987,1 46119U 20057C   26094.25002315  .00354703  00000+0  13796-2 0  9993,2 46119  53.0418 142.2105 0006043  21.9778  58.5056 15.85635788  5983
STARLINK-1621,46127,53.0389,0.0007674,15.90068164,296.96553056392804,307.2183459383559,1 46127U 20057L   26094.25002315  .00475346  96465-4  15522-2 0  9993,2 46127  53.0389 114.8599 0007674  21.7065 335.1500 15.90068164  5677
STARLINK-1622,46128,53.02,0.0002451,15.69188693,359.5671283433994,362.8707606273874,1 46128U 20057M   26094.25002315  .00053761  00000+0  45531-3 0  9996,2 46128  53.0200  98.3859 0002451 352.3949 197.2332 15.69188693  5954
STARLINK-1623,46129,53.0462,0.000377,15.58243973,390.1865429806312,395.29178360775495,1 46129U 20057N   26094.27672608  .00192023  00000+0  24403-2 0  9996,2 46129  53.0462 132.2162 0003770 326.7057  33.3717 15.58243973310902
